FALCONSAT-10            
1 58291U 23174AM  26068.70247784  .00006748  00000+0  25969-3 0  9991
2 58291  97.3865 145.7938 0008932 169.5942 190.5483 15.26670596129582
STARLINK-31009          
1 58530U 23191Y   26068.50689941  .00080329  00000+0  29373-2 0  9998
2 58530  42.9983 104.4335 0002046 225.1892 134.8793 15.27125173125466
